SAUDISAT 2              
1 28371U 04025F   26193.58127125  .00000111  00000+0  35825-4 0  9993
2 28371  98.5519 194.2206 0023928 216.4275 143.5295 14.56697427169449
COSMOS 2407             
1 28380U 04028A   26193.58306885  .00000045  00000+0  30123-4 0  9990
2 28380  82.9587  56.0223 0039127 179.3641 242.6390 13.76336412103379
COSMOS 2414             
1 28521U 05002A   26193.55231864  .00000058  00000+0  36071-4 0  9993
2 28521  82.9486  24.4548 0038709 256.6598 103.0248 13.87928124 87336
INMARSAT 4-F1           
1 28628U 05009A   26193.32475437  .00000030  00000+0  00000+0 0  9997
2 28628   5.2012  42.7812 0002473  73.2040 109.2466  1.00271047 77929
SJ-7                    
1 28737U 05024A   26193.53830648  .00004260  00000+0  18993-3 0  9990
2 28737  97.7277 224.3283 0013819 306.9795  53.0174 15.21911693151884
CUBESAT XI-V            
1 28895U 05043F   26192.38715503  .00000804  00000+0  13420-3 0  9990
2 28895  98.3011 348.5214 0015131 126.3821 233.8784 14.72696464105311
HINODE (SOLAR-B)        
1 29479U 06041A   26193.53016054  .00000326  00000+0  64454-4 0  9994
2 29479  98.0549 209.3092 0016817 203.1265 156.9185 14.68656236 58594
SHIJIAN-6 02B (SJ-6 02B)
1 29506U 06046B   26193.60503144  .00000831  00000+0  69009-4 0  9991
2 29506  97.7154 222.5063 0013722 345.2102  14.8719 15.01435667 74558
DMSP 5D-3 F17 (USA 191) 
1 29522U 06050A   26193.55501743 -.00000008  00000+0  18114-4 0  9999
2 29522  98.7386 199.6066 0009875 350.6218   9.4770 14.14996094 16016
LAPAN-TUBSAT            
1 29709U 07001A   26193.57323863  .00000910  00000+0  11069-3 0  9992
2 29709  98.1351 193.3705 0013614 101.2183 259.0563 14.85978036 54926
HAIYANG-1B              
1 31113U 07010A   26193.52578641  .00000031  00000+0  27500-4 0  9997
2 31113  98.3513 174.3903 0014573 123.1700 237.0884 14.31032894  4260
COSMO-SKYMED 2          
1 32376U 07059A   26193.61250619  .00000195  00000+0  31019-4 0  9995
2 32376  97.8891  16.8424 0001425  93.7066 266.4310 14.82149302  5778
CARTOSAT-2A             
1 32783U 08021A   26193.61548653  .00000353  00000+0  54120-4 0  9999
2 32783  97.7627 241.4544 0012706  34.9714 325.2330 14.79274246982565
CUTE-1.7+APD II (CO-65) 
1 32785U 08021C   26193.56979783  .00003132  00000+0  19855-3 0  9990
2 32785  97.8286 175.5222 0007259 310.1799  49.8793 15.09684862989021
SEEDS II (CO-66)        
1 32791U 08021J   26193.52388480  .00011335  00000+0  35129-3 0  9997
2 32791  97.7520 192.6480 0002793 162.8059 197.3278 15.33607267991170
YUBILEINY (RS30)        
1 32953U 08025A   26193.61001110  .00000046  00000+0  26003-3 0  9991
2 32953  82.5053 339.6247 0018565 254.9987 104.9038 12.43180808822855
FENGYUN 3A              
1 32958U 08026A   26193.42135756  .00000011  00000+0  25877-4 0  9991
2 32958  98.6887 133.7832 0009733  59.0166 301.1966 14.19576112938981
HUANJING 1A (HJ-1A)     
1 33320U 08041A   26193.58599457  .00001064  00000+0  13343-3 0  9994
2 33320  97.6691 178.4439 0020500  57.5915 302.7280 14.84046074962171
HUANJING 1B (HJ-1B)     
1 33321U 08041B   26193.63418284 -.00000021  00000+0  37599-5 0  9993
2 33321  97.6529 181.5846 0037905  99.2132 261.3373 14.83360210962184
SHIJIAN-6 03A (SJ-6 03A)
1 33408U 08053A   26193.63689948  .00004318  00000+0  21945-3 0  9997
2 33408  97.8403 227.8446 0009606 286.4878  73.5299 15.17404201966829
SHIJIAN-6 03B (SJ-6 03B)
1 33409U 08053B   26193.64179925  .00000647  00000+0  50922-4 0  9997
2 33409  97.8581 213.9551 0017976 320.4850  39.5064 15.04378372966577
